ONEWEB-0338             
1 49204U 21083U   23246.55208302  .00000019  00000+0  15202-4 0  9998
2 49204  87.9201 117.0751 0002236  88.7268 271.4122 13.20770661102489
ONEWEB-0339             
1 49205U 21083V   23246.47027102  .00000167  00000+0  42179-3 0  9993
2 49205  87.9086 162.6906 0002141  72.5041 287.6322 13.13463947 97295
ONEWEB-0340             
1 49206U 21083W   23246.55392421  .00000019  00000+0  15990-4 0  9990
2 49206  87.9227 177.8452 0001924  72.8417 287.2926 13.18684223 95858
ONEWEB-0341             
1 49207U 21083X   23246.56233374  .00000036  00000+0  57707-4 0  9994
2 49207  87.9309 177.7829 0002671  64.6407 295.5001 13.18689251 95879
ONEWEB-0342             
1 49208U 21083Y   23246.40687613 -.00000058  00000+0 -17370-3 0  9994
2 49208  87.9193 117.1382 0001977  86.1106 274.0253 13.20770295102430
ONEWEB-0343             
1 49209U 21083Z   23246.55812850  .00000036  00000+0  57555-4 0  9998
2 49209  87.9290 177.8178 0003011  67.7169 292.4282 13.18683602 95923
ONEWEB-0344             
1 49210U 21083AA  23246.58770284  .00000102  00000+0  24446-3 0  9993
2 49210  87.9086 162.6732 0001768  70.2914 289.8406 13.13473244 97317
ONEWEB-0345             
1 49211U 21083AB  23246.52951782  .00000385  00000+0  10190-2 0  9995
2 49211  87.9086 162.6712 0002068  55.7157 304.4167 13.13470008 97310
